BEIDOU-3 IGSO-3         
1 44709U 19073A   26136.81046384 -.00000217  00000+0  00000+0 0  9995
2 44709  54.8566 281.2355 0042953 189.4588 170.3676  1.00246251 24144
TIBA-1                  
1 44800U 19080A   26164.26993179  .00000168  00000+0  00000+0 0  9992
2 44800   0.0515   0.3598 0001798  93.7980 300.1050  1.00268727 24014
INMARSAT GX5            
1 44801U 19080B   26164.26507844  .00000087  00000+0  00000+0 0  9993
2 44801   0.0445  26.0750 0002187  53.9630 288.0050  1.00271537  6742
JCSAT-18 (KACIFIC 1)    
1 44868U 19091A   26163.79350723  .00000000  00000+0  00000+0 0  9992
2 44868   0.0118 335.4046 0000488 269.9421  91.4339  1.00268879 23960
ELEKTRO-L 3             
1 44903U 19095A   26164.06407377 -.00000083  00000+0  00000+0 0  9997
2 44903   0.2449  81.5387 0001084 355.9180 282.9502  1.00271696 23664
SHIJIAN-20 (SJ-20)      
1 44910U 19097A   26162.65012118  .00000149  00000+0  00000+0 0  9997
2 44910   4.9041  75.1287 0013820  54.2016  49.5311  1.00275988 23648
TJS-5                   
1 44978U 20002A   26163.85643782 -.00000328  00000+0  00000+0 0  9999
2 44978   0.0229 292.1361 0007444 115.0769 269.8017  1.00271139 23663
GSAT-30                 
1 45026U 20005A   26164.06546045 -.00000151  00000+0  00000+0 0  9999
2 45026   0.0632 100.2660 0003366 343.6182 284.0551  1.00271616 23464
EUTELSAT KONNECT        
1 45027U 20005B   26163.69395206  .00000065  00000+0  00000+0 0  9992
2 45027   0.0723  99.8531 0001648 128.9449 289.2912  1.00275963 24296
JCSAT-17                
1 45245U 20013A   26164.28984314 -.00000307  00000+0  00000+0 0  9993
2 45245   5.3925 356.8297 0002365  83.5832  61.5613  1.00271724 23192
GEO-KOMPSAT-2B          
1 45246U 20013B   26164.28828312 -.00000331  00000+0  00000+0 0  9996
2 45246   0.0176 255.2616 0000739  15.0095 223.3798  1.00272603 23249
BEIDOU-3 G2             
1 45344U 20017A   26164.06485377 -.00000130  00000+0  00000+0 0  9992
2 45344   2.8546  47.2727 0002189  32.7659 284.7664  1.00272615 23217
AEHF-6 (USA 298)        
1 45465U 20022B   26164.29010314 -.00000284  00000+0  00000+0 0  9992
2 45465   2.5574 301.0971 0043189  17.0575 185.6590  1.00272852 22971
BEIDOU-3 G3             
1 45807U 20040A   26164.28472978 -.00000343  00000+0  00000+0 0  9995
2 45807   2.4362  67.4406 0002503 336.7928  70.4276  1.00268740 22039
APSTAR-6D               
1 45863U 20045A   26163.86163785 -.00000304  00000+0  00000+0 0  9995
2 45863   0.0494 112.7015 0001955 330.7120 261.9926  1.00270996 21819
KOREASAT 116            
1 45920U 20048A   26164.28585646 -.00000350  00000+0  00000+0 0  9994
2 45920   0.0144 346.4893 0000722  97.3541  36.8883  1.00269948 21602
EXPRESS 103             
1 45985U 20053A   26164.10114338 -.00000267  00000+0  00000+0 0  9995
2 45985   0.0123 295.4025 0000223 103.4460 355.4975  1.00270891 21606
EXPRESS 80              
1 45986U 20053B   26164.05177094 -.00000124  00000+0  00000+0 0  9990
2 45986   0.0197 285.4495 0001876 237.0832 197.4818  1.00275822 21586
BSAT-4B                 
1 46112U 20056A   26164.28464311  .00000000  00000+0  00000+0 0  9993
2 46112   0.0174 100.6416 0003737  15.1841 358.0792  1.00268833 21352
MEV-2                   
1 46113U 20056B   26164.26265176  .00000001  00000+0  00000+0 0  9991
2 46113   0.0107 328.0771 0000154 237.9101 149.1356  1.00269830 80440
GALAXY 30 (G-30)        
1 46114U 20056C   26164.26332130  .00000000  00000+0  00000+0 0  9996
2 46114   0.0263   4.2630 0002076  85.2436 141.8652  1.00270054 21253
GAOFEN-13 01            
1 46610U 20071A   26164.28620313 -.00000351  00000+0  00000+0 0  9999
2 46610   0.5109  84.8889 0041375 123.6214 274.3411  1.00272589 20882
TIANTONG-1 2            
1 46916U 20082A   26164.28758979 -.00000343  00000+0  00000+0 0  9991
2 46916   0.7959 326.9159 0000982  98.4679  64.6987  1.00271335 20616
LUCAS (JDRS-1)          
1 47202U 20089A   26164.06702045 -.00000223  00000+0  00000+0 0  9993
2 47202   0.0142 297.1401 0002080 135.2969 303.8846  1.00271486 20376
SXM-7                   
1 47240U 20096A   26163.88959397 -.00000191  00000+0  00000+0 0  9990
2 47240   0.0410 121.9228 0003792   4.0889  10.3053  1.00270240  7408
CMS-01                  
1 47256U 20099A   26164.06546045 -.00000151  00000+0  00000+0 0  9999
2 47256   0.0876  96.5737 0003757 180.1932  91.1803  1.00271249 20156
TURKSAT 5A              
1 47306U 21001A   26163.79975087  .00000168  00000+0  00000+0 0  9997
2 47306   0.0162  45.9216 0000077 215.2485 318.8046  1.00271122 19926
TIANTONG-1 3            
1 47321U 21003A   26164.06511377 -.00000142  00000+0  00000+0 0  9998
2 47321   1.7596 339.0191 0003181 110.2963 277.0616  1.00271254 19920
TJS-6                   
1 47613U 21010A   26164.22698774  .00000055  00000+0  00000+0 0  9997
2 47613   0.2618 264.3633 0003022 223.1395  34.2810  1.00268517 19760
SBIRS GEO-5 (USA 315)   
1 48618U 21042A   26164.11969344 -.00000256  00000+0  00000+0 0  9994
2 48618   5.1091 329.0934 0001304 121.0815 308.1685  1.00270800 18739
FENGYUN 4B              
1 48808U 21047A   26164.28360311 -.00000318  00000+0  00000+0 0  9996
2 48808   0.1430  77.0513 0005865 275.6530 115.5342  1.00278453 18531
SXM-8                   
1 48838U 21049A   26163.88959397 -.00000191  00000+0  00000+0 0  9993
2 48838   0.0201  18.0567 0004910  13.7893 104.4761  1.00269556 18543
