OBJECT_NAME,OBJECT_ID,EPOCH,MEAN_MOTION,ECCENTRICITY,INCLINATION,RA_OF_ASC_NODE,ARG_OF_PERICENTER,MEAN_ANOMALY,EPHEMERIS_TYPE,CLASSIFICATION_TYPE,NORAD_CAT_ID,ELEMENT_SET_NO,REV_AT_EPOCH,BSTAR,MEAN_MOTION_DOT,MEAN_MOTION_DDOT
BEIDOU-3 IGSO-3,2019-073A,2026-05-16T19:27:04.075776,1.00246251,.0042953,54.8566,281.2355,189.4588,170.3676,0,U,44709,999,2414,0,-.217E-5,0
TIBA-1,2019-080A,2026-06-13T06:28:42.106656,1.00268727,.00017986,0.0515,0.3598,93.7980,300.1050,0,U,44800,999,2401,0,.168E-5,0
INMARSAT GX5,2019-080B,2026-06-13T06:21:42.777216,1.00271537,.0002187,0.0445,26.0750,53.9630,288.0050,0,U,44801,999,674,0,.87E-6,0
JCSAT-18 (KACIFIC 1),2019-091A,2026-06-12T19:02:39.024672,1.00268879,.00004883,0.0118,335.4046,269.9421,91.4339,0,U,44868,999,2396,0,0,0
ELEKTRO-L 3,2019-095A,2026-06-13T01:32:15.973728,1.00271696,.00010843,0.2449,81.5387,355.9180,282.9502,0,U,44903,999,2366,0,-.83E-6,0
SHIJIAN-20 (SJ-20),2019-097A,2026-06-11T15:36:10.469952,1.00275988,.001382,4.9041,75.1287,54.2016,49.5311,0,U,44910,999,2364,0,.149E-5,0
TJS-5,2020-002A,2026-06-12T20:33:16.227648,1.00271139,.0007444,0.0229,292.1361,115.0769,269.8017,0,U,44978,999,2366,0,-.328E-5,0
GSAT-30,2020-005A,2026-06-13T01:34:15.782880,1.00271616,.00033668,0.0632,100.2660,343.6182,284.0551,0,U,45026,999,2346,0,-.151E-5,0
EUTELSAT KONNECT,2020-005B,2026-06-12T16:39:17.457984,1.00275963,.00016489,0.0723,99.8531,128.9449,289.2912,0,U,45027,999,2429,0,.65E-6,0
JCSAT-17,2020-013A,2026-06-13T06:57:22.447296,1.00271724,.00023657,5.3925,356.8297,83.5832,61.5613,0,U,45245,999,2319,0,-.307E-5,0
GEO-KOMPSAT-2B,2020-013B,2026-06-13T06:55:07.661568,1.00272603,.0000739,0.0176,255.2616,15.0095,223.3798,0,U,45246,999,2324,0,-.331E-5,0
BEIDOU-3 G2,2020-017A,2026-06-13T01:33:23.365728,1.00272615,.00021895,2.8546,47.2727,32.7659,284.7664,0,U,45344,999,2321,0,-.13E-5,0
AEHF-6 (USA 298),2020-022B,2026-06-13T06:57:44.911296,1.00272852,.00431894,2.5574,301.0971,17.0575,185.6590,0,U,45465,999,2297,0,-.284E-5,0
BEIDOU-3 G3,2020-040A,2026-06-13T06:50:00.652992,1.00268740,.00025032,2.4362,67.4406,336.7928,70.4276,0,U,45807,999,2203,0,-.343E-5,0
APSTAR-6D,2020-045A,2026-06-12T20:40:45.510240,1.00270996,.00019552,0.0494,112.7015,330.7120,261.9926,0,U,45863,999,2181,0,-.304E-5,0
KOREASAT 116,2020-048A,2026-06-13T06:51:37.998144,1.00269948,.00007224,0.0144,346.4893,97.3541,36.8883,0,U,45920,999,2160,0,-.35E-5,0
EXPRESS 103,2020-053A,2026-06-13T02:25:38.788032,1.00270891,.00002231,0.0123,295.4025,103.4460,355.4975,0,U,45985,999,2160,0,-.267E-5,0
EXPRESS 80,2020-053B,2026-06-13T01:14:33.009216,1.00275822,.00018766,0.0197,285.4495,237.0832,197.4818,0,U,45986,999,2158,0,-.124E-5,0
BSAT-4B,2020-056A,2026-06-13T06:49:53.164704,1.00268833,.00037373,0.0174,100.6416,15.1841,358.0792,0,U,46112,999,2135,0,0,0
MEV-2,2020-056B,2026-06-13T06:18:13.112064,1.00269830,.00001542,0.0107,328.0771,237.9101,149.1356,0,U,46113,999,8044,0,.1E-7,0
GALAXY 30 (G-30),2020-056C,2026-06-13T06:19:10.960320,1.00270054,.00020763,0.0263,4.2630,85.2436,141.8652,0,U,46114,999,2125,0,0,0
GAOFEN-13 01,2020-071A,2026-06-13T06:52:07.950432,1.00272589,.0041375,0.5109,84.8889,123.6214,274.3411,0,U,46610,999,2088,0,-.351E-5,0
TIANTONG-1 2,2020-082A,2026-06-13T06:54:07.757856,1.00271335,.00009823,0.7959,326.9159,98.4679,64.6987,0,U,46916,999,2061,0,-.343E-5,0
LUCAS (JDRS-1),2020-089A,2026-06-13T01:36:30.566880,1.00271486,.00020801,0.0142,297.1401,135.2969,303.8846,0,U,47202,999,2037,0,-.223E-5,0
SXM-7,2020-096A,2026-06-12T21:21:00.919008,1.00270240,.00037925,0.0410,121.9228,4.0889,10.3053,0,U,47240,999,740,0,-.191E-5,0
CMS-01,2020-099A,2026-06-13T01:34:15.782880,1.00271249,.00037579,0.0876,96.5737,180.1932,91.1803,0,U,47256,999,2015,0,-.151E-5,0
TURKSAT 5A,2021-001A,2026-06-12T19:11:38.475168,1.00271122,.00000774,0.0162,45.9216,215.2485,318.8046,0,U,47306,999,1992,0,.168E-5,0
TIANTONG-1 3,2021-003A,2026-06-13T01:33:45.829728,1.00271254,.00031812,1.7596,339.0191,110.2963,277.0616,0,U,47321,999,1992,0,-.142E-5,0
TJS-6,2021-010A,2026-06-13T05:26:51.740736,1.00268517,.00030226,0.2618,264.3633,223.1395,34.2810,0,U,47613,999,1976,0,.55E-6,0
SBIRS GEO-5 (USA 315),2021-042A,2026-06-13T02:52:21.513216,1.00270800,.00013045,5.1091,329.0934,121.0815,308.1685,0,U,48618,999,1873,0,-.256E-5,0
FENGYUN 4B,2021-047A,2026-06-13T06:48:23.308704,1.00278453,.00058658,0.1430,77.0513,275.6530,115.5342,0,U,48808,999,1853,0,-.318E-5,0
SXM-8,2021-049A,2026-06-12T21:21:00.919008,1.00269556,.00049109,0.0201,18.0567,13.7893,104.4761,0,U,48838,999,1854,0,-.191E-5,0
